{
  "type": "FeatureCollection",
  "features": [
    {
      "type": "Feature",
      "properties": {
        "norad_id": 49336,
        "name": "QZS-1R (QZSS/PRN 196)",
        "group": "gnss",
        "lat": 35.300944102841484,
        "lon": -167.0444359760434,
        "alt_km": 38820.15794741892,
        "timestamp": "2025-12-07T22:37:43.323148+00:00",
        "meta_object_name": "QZS-1R (QZSS/PRN 196)",
        "meta_object_id": "2021-096A",
        "meta_epoch": "2025-12-05T14:57:38.876832",
        "meta_mean_motion": 1.00259301,
        "meta_eccentricity": 0.07539341,
        "meta_inclination": 37.062,
        "meta_ra_of_asc_node": 82.4658,
        "meta_arg_of_pericenter": 271.1853,
        "meta_mean_anomaly": 80.5969,
        "meta_ephemeris_type": 0,
        "meta_classification_type": "U",
        "meta_norad_cat_id": 49336,
        "meta_element_set_no": 999,
        "meta_rev_at_epoch": 1507,
        "meta_bstar": 0,
        "meta_mean_motion_dot": -2.6e-06,
        "meta_mean_motion_ddot": 0,
        "tle_line1": "1 49336U 21096A   25339.62336663 -.00000260  00000+0  00000+0 0  9997",
        "tle_line2": "2 49336  37.0620  82.4658 0753934 271.1853  80.5969  1.00259301 15077"
      },
      "geometry": {
        "type": "Point",
        "coordinates": [
          -167.0444359760434,
          35.300944102841484
        ]
      }
    },
    {
      "type": "Feature",
      "properties": {
        "norad_id": 49809,
        "name": "GSAT0223 (GALILEO 27)",
        "group": "gnss",
        "lat": 52.60540979516617,
        "lon": 109.37208666831562,
        "alt_km": 23226.883054277205,
        "timestamp": "2025-12-07T22:37:43.323168+00:00",
        "meta_object_name": "GSAT0223 (GALILEO 27)",
        "meta_object_id": "2021-116A",
        "meta_epoch": "2025-12-06T21:09:43.608672",
        "meta_mean_motion": 1.70475531,
        "meta_eccentricity": 0.00047238,
        "meta_inclination": 57.2205,
        "meta_ra_of_asc_node": 346.871,
        "meta_arg_of_pericenter": 250.5355,
        "meta_mean_anomaly": 287.3218,
        "meta_ephemeris_type": 0,
        "meta_classification_type": "U",
        "meta_norad_cat_id": 49809,
        "meta_element_set_no": 999,
        "meta_rev_at_epoch": 2490,
        "meta_bstar": 0,
        "meta_mean_motion_dot": -8.2e-07,
        "meta_mean_motion_ddot": 0,
        "tle_line1": "1 49809U 21116A   25340.88175473 -.00000082  00000+0  00000+0 0  9997",
        "tle_line2": "2 49809  57.2205 346.8710 0004723 250.5355 287.3218  1.70475531 24902"
      },
      "geometry": {
        "type": "Point",
        "coordinates": [
          109.37208666831562,
          52.60540979516617
        ]
      }
    },
    {
      "type": "Feature",
      "properties": {
        "norad_id": 49810,
        "name": "GSAT0224 (GALILEO 28)",
        "group": "gnss",
        "lat": -33.97717393369588,
        "lon": -167.41839497871922,
        "alt_km": 23216.095797935053,
        "timestamp": "2025-12-07T22:37:43.323186+00:00",
        "meta_object_name": "GSAT0224 (GALILEO 28)",
        "meta_object_id": "2021-116B",
        "meta_epoch": "2025-12-04T15:38:46.077216",
        "meta_mean_motion": 1.70475512,
        "meta_eccentricity": 0.00040562,
        "meta_inclination": 57.2223,
        "meta_ra_of_asc_node": 346.9305,
        "meta_arg_of_pericenter": 253.8254,
        "meta_mean_anomaly": 108.1284,
        "meta_ephemeris_type": 0,
        "meta_classification_type": "U",
        "meta_norad_cat_id": 49810,
        "meta_element_set_no": 999,
        "meta_rev_at_epoch": 2489,
        "meta_bstar": 0,
        "meta_mean_motion_dot": -7.3e-07,
        "meta_mean_motion_ddot": 0,
        "tle_line1": "1 49810U 21116B   25338.65192219 -.00000073  00000+0  00000+0 0  9998",
        "tle_line2": "2 49810  57.2223 346.9305 0004056 253.8254 108.1284  1.70475512 24898"
      },
      "geometry": {
        "type": "Point",
        "coordinates": [
          -167.41839497871922,
          -33.97717393369588
        ]
      }
    },
    {
      "type": "Feature",
      "properties": {
        "norad_id": 52984,
        "name": "COSMOS 2557 (706K)",
        "group": "gnss",
        "lat": -38.830393975083254,
        "lon": 163.88916815614795,
        "alt_km": 19113.62019889534,
        "timestamp": "2025-12-07T22:37:43.323206+00:00",
        "meta_object_name": "COSMOS 2557 (706K)",
        "meta_object_id": "2022-075A",
        "meta_epoch": "2025-12-06T05:49:32.114784",
        "meta_mean_motion": 2.13101746,
        "meta_eccentricity": 0.001371,
        "meta_inclination": 64.4134,
        "meta_ra_of_asc_node": 321.2801,
        "meta_arg_of_pericenter": 276.8497,
        "meta_mean_anomaly": 82.9895,
        "meta_ephemeris_type": 0,
        "meta_classification_type": "U",
        "meta_norad_cat_id": 52984,
        "meta_element_set_no": 999,
        "meta_rev_at_epoch": 2660,
        "meta_bstar": 0,
        "meta_mean_motion_dot": -5.1e-07,
        "meta_mean_motion_ddot": 0,
        "tle_line1": "1 52984U 22075A   25340.24273281 -.00000051  00000+0  00000+0 0  9992",
        "tle_line2": "2 52984  64.4134 321.2801 0013710 276.8497  82.9895  2.13101746 26604"
      },
      "geometry": {
        "type": "Point",
        "coordinates": [
          163.88916815614795,
          -38.830393975083254
        ]
      }
    },
    {
      "type": "Feature",
      "properties": {
        "norad_id": 54031,
        "name": "COSMOS 2559 (707K)",
        "group": "gnss",
        "lat": 2.705846603229657,
        "lon": -37.403456255451445,
        "alt_km": 19160.331784918693,
        "timestamp": "2025-12-07T22:37:43.323225+00:00",
        "meta_object_name": "COSMOS 2559 (707K)",
        "meta_object_id": "2022-130A",
        "meta_epoch": "2025-12-03T17:10:26.893920",
        "meta_mean_motion": 2.13101235,
        "meta_eccentricity": 0.00120262,
        "meta_inclination": 64.3873,
        "meta_ra_of_asc_node": 321.4588,
        "meta_arg_of_pericenter": 192.7508,
        "meta_mean_anomaly": 167.2215,
        "meta_ephemeris_type": 0,
        "meta_classification_type": "U",
        "meta_norad_cat_id": 54031,
        "meta_element_set_no": 999,
        "meta_rev_at_epoch": 2452,
        "meta_bstar": 0,
        "meta_mean_motion_dot": -4.4e-07,
        "meta_mean_motion_ddot": 0,
        "tle_line1": "1 54031U 22130A   25337.71558905 -.00000044  00000+0  00000+0 0  9998",
        "tle_line2": "2 54031  64.3873 321.4588 0012026 192.7508 167.2215  2.13101235 24525"
      },
      "geometry": {
        "type": "Point",
        "coordinates": [
          -37.403456255451445,
          2.705846603229657
        ]
      }
    },
    {
      "type": "Feature",
      "properties": {
        "norad_id": 54377,
        "name": "COSMOS 2564 (761)",
        "group": "gnss",
        "lat": 49.77052501615942,
        "lon": -14.87109199672138,
        "alt_km": 19121.65023385498,
        "timestamp": "2025-12-07T22:37:43.323242+00:00",
        "meta_object_name": "COSMOS 2564 (761)",
        "meta_object_id": "2022-161A",
        "meta_epoch": "2025-12-06T20:16:19.958016",
        "meta_mean_motion": 2.13101987,
        "meta_eccentricity": 0.0008674,
        "meta_inclination": 64.7378,
        "meta_ra_of_asc_node": 199.0949,
        "meta_arg_of_pericenter": 205.6872,
        "meta_mean_anomaly": 154.3558,
        "meta_ephemeris_type": 0,
        "meta_classification_type": "U",
        "meta_norad_cat_id": 54377,
        "meta_element_set_no": 999,
        "meta_rev_at_epoch": 2353,
        "meta_bstar": 0,
        "meta_mean_motion_dot": 6.7e-07,
        "meta_mean_motion_ddot": 0,
        "tle_line1": "1 54377U 22161A   25340.84467544  .00000067  00000+0  00000+0 0  9995",
        "tle_line2": "2 54377  64.7378 199.0949 0008674 205.6872 154.3558  2.13101987 23535"
      },
      "geometry": {
        "type": "Point",
        "coordinates": [
          -14.87109199672138,
          49.77052501615942
        ]
      }
    },
    {
      "type": "Feature",
      "properties": {
        "norad_id": 55268,
        "name": "GPS BIII-6  (PRN 28)",
        "group": "gnss",
        "lat": -32.02583682808985,
        "lon": 130.12955151866393,
        "alt_km": 20179.24906267234,
        "timestamp": "2025-12-07T22:37:43.323263+00:00",
        "meta_object_name": "GPS BIII-6  (PRN 28)",
        "meta_object_id": "2023-009A",
        "meta_epoch": "2025-12-07T05:54:14.393088",
        "meta_mean_motion": 2.00556057,
        "meta_eccentricity": 0.00036245,
        "meta_inclination": 55.1044,
        "meta_ra_of_asc_node": 156.061,
        "meta_arg_of_pericenter": 357.0717,
        "meta_mean_anomaly": 179.5009,
        "meta_ephemeris_type": 0,
        "meta_classification_type": "U",
        "meta_norad_cat_id": 55268,
        "meta_element_set_no": 999,
        "meta_rev_at_epoch": 2139,
        "meta_bstar": 0,
        "meta_mean_motion_dot": 5.8e-07,
        "meta_mean_motion_ddot": 0,
        "tle_line1": "1 55268U 23009A   25341.24599992  .00000058  00000+0  00000+0 0  9995",
        "tle_line2": "2 55268  55.1044 156.0610 0003624 357.0717 179.5009  2.00556057 21397"
      },
      "geometry": {
        "type": "Point",
        "coordinates": [
          130.12955151866393,
          -32.02583682808985
        ]
      }
    }
  ]
}